STARLINK-4026           
1 52600U 22052C   26068.85820795 -.00000436  00000+0 -92879-5 0  9994
2 52600  53.2155 278.3676 0001339  87.3603 272.7542 15.08837616211680
LEMUR-2-UNTITLED-SC     
1 63351U 25061A   26068.89211098  .00005783  00000+0  33296-3 0  9990
2 63351  97.5556  45.0864 0017373 245.6030 114.3388 15.12695529 52577
